SAR-LUPE 2              
1 31797U 07030A   26118.99688771  .00012253  00000+0  26252-3 0  9992
2 31797  98.0999 217.5975 0010039 275.1151  84.8949 15.44890126 49335
SAPPHIRE                
1 39088U 13009C   26118.94293467  .00000112  00000+0  53959-4 0  9991
2 39088  98.4251 299.5705 0011930  40.6850 319.5224 14.35226855689519
PRAETORIAN SDA_602      
1 65565U 25203A   26118.94863312  .00000176  00000+0  14684-3 0  9992
2 65565  81.3040  56.3743 0005685 338.3191  21.7724 13.84335998 31881
PRAETORIAN SDA_603      
1 65566U 25203B   26118.81518753  .00000180  00000+0  15169-3 0  9999
2 65566  81.3044  56.3788 0009286 333.9367  26.1320 13.83898499 31871
PRAETORIAN SDA_604      
1 65567U 25203C   26118.87658702  .00000014  00000+0  16309-5 0  9990
2 65567  81.3063  56.6587 0005478 347.0126  13.0888 13.83038973 31867
PRAETORIAN SDA_605      
1 65568U 25203D   26118.85573082  .00000072  00000+0  54710-4 0  9997
2 65568  81.3028  56.3894 0007863 331.5311  28.5415 13.83427092 31873
PRAETORIAN SDA_606      
1 65569U 25203E   26118.91162204  .00000081  00000+0  63106-4 0  9994
2 65569  81.3065  56.5425 0005596 336.2724  23.8173 13.83534731 31876
PRAETORIAN SDA_607      
1 65570U 25203F   26118.94898704  .00000212  00000+0  17945-3 0  9995
2 65570  81.3049  56.2430 0008608 334.6579  25.4155 13.84319769 31893
PRAETORIAN SDA_608      
1 65571U 25203G   26118.90964348  .00000048  00000+0  32665-4 0  9994
2 65571  81.3016  56.4213 0005931 344.6597  15.4379 13.83808709 31877
PRAETORIAN SDA_609      
1 65572U 25203H   26118.93137166  .00000290  00000+0  24880-3 0  9996
2 65572  81.3058  56.3981 0006635 336.0312  24.0535 13.84304244 31884
PRAETORIAN SDA_610      
1 65573U 25203J   26118.81954981  .00000031  00000+0  17343-4 0  9996
2 65573  81.3018  56.4674 0006331 340.2027  19.8883 13.83914829 31865
PRAETORIAN SDA_611      
1 65574U 25203K   26118.94444993 -.00000004  00000+0 -14395-4 0  9994
2 65574  81.3018  56.4734 0005599 349.3413  10.7624 13.83302555 31878
PRAETORIAN SDA_612      
1 65575U 25203L   26118.85099930  .00000215  00000+0  17931-3 0  9992
2 65575  81.3040  56.2682 0009005 334.0586  26.0119 13.85030966 31888
PRAETORIAN SDA_613      
1 65576U 25203M   26118.93472615  .00000041  00000+0  26970-4 0  9998
2 65576  81.3010  56.4480 0005571 342.2419  17.8541 13.82946650 31873
PRAETORIAN SDA_614      
1 65577U 25203N   26118.90317999  .00000051  00000+0  35052-4 0  9991
2 65577  81.3024  56.2852 0006866 334.5108  25.5709 13.84771033 31894
PRAETORIAN SDA_615      
1 65578U 25203P   26118.94015342  .00000214  00000+0  18030-3 0  9990
2 65578  81.3035  56.1835 0008706 332.2619  27.8072 13.84428732 31897
PRAETORIAN SDA_616      
1 65579U 25203Q   26118.94314894  .00000225  00000+0  19432-3 0  9994
2 65579  81.3074  56.5894 0005384 348.7071  11.3964 13.83318042 31870
PRAETORIAN SDA_617      
1 65580U 25203R   26118.81565623  .00000057  00000+0  41356-4 0  9994
2 65580  81.3046  56.5429 0007209 335.1506  24.9302 13.83197360 31869
PRAETORIAN SDA_618      
1 65581U 25203S   26118.91692594  .00000233  00000+0  19643-3 0  9993
2 65581  81.3031  56.1592 0009482 333.1787  26.8879 13.84767226 31893
PRAETORIAN SDA_619      
1 65582U 25203T   26118.85062669  .00000229  00000+0  19566-3 0  9990
2 65582  81.3053  56.4409 0007742 332.9752  27.1000 13.83936901 32500
PRAETORIAN SDA_620      
1 65583U 25203U   26118.94105477  .00000245  00000+0  21172-3 0  9990
2 65583  81.3040  56.3639 0007215 330.2271  29.8474 13.83612971 31885
PRAETORIAN SDA_621      
1 65584U 25203V   26118.92131014  .00000053  00000+0  36838-4 0  9998
2 65584  81.3031  56.3192 0007006 328.5261  31.5475 13.83793100 31882
PRAETORIAN SDA_601      
1 65585U 25203W   26118.94523641  .00000054  00000+0  38586-4 0  9995
2 65585  81.3048  56.5436 0005395 348.7896  11.3139 13.83424056 31874
